KUIPER-00071            
1 64818U 25151C   25223.50002315 -.00564216  00000+0 -22003-1 0  9994
2 64818  51.8809 161.3538 0003482 225.1132  41.5167 15.27528622  4019
KUIPER-00072            
1 64819U 25151D   25223.23850432  .00063582  00000+0  17991-2 0  9995
2 64819  51.8832 162.4310 0006052 247.1520 112.8828 15.35689118  3985
KUIPER-00073            
1 64820U 25151E   25223.50002315 -.00260962  00000+0 -94295-2 0  9991
2 64820  51.8809 161.3860 0005821 243.1839  31.7004 15.29032046  5196
KUIPER-00074            
1 64821U 25151F   25223.43093648  .00035116  00000+0  10018-2 0  9993
2 64821  51.8774 161.4695 0004692 240.1150 119.9371 15.35709323  4015
KUIPER-00075            
1 64822U 25151G   25223.42905697  .00041524  00000+0  11497-2 0  9991
2 64822  51.8791 161.4652 0004137 235.8808 124.1786 15.36566006  4011
KUIPER-00076            
1 64823U 25151H   25223.30276427  .00027698  00000+0  79699-3 0  9996
2 64823  51.8789 162.1096 0004637 234.3543 125.7011 15.35561497  3996
KUIPER-00077            
1 64824U 25151J   25223.24009470  .00040663  00000+0  11633-2 0  9992
2 64824  51.8795 162.4477 0005811 247.3079 112.7293 15.35547393  3978
KUIPER-00078            
1 64825U 25151K   25223.43479462  .00034319  00000+0  98380-3 0  9992
2 64825  51.8784 161.4982 0005412 258.4996 101.5383 15.35565827  4019
