<?xml version="1.0" encoding="UTF-8"?>
<ndm xmlns:xsi="http://www.w3.org/2001/XMLSchema-instance" xsi:noNamespaceSchemaLocation="https://sanaregistry.org/r/ndmxml_unqualified/ndmxml-2.0.0-master-2.0.xsd">
<omm id="CCSDS_OMM_VERS" version="2.0">
<header><CREATION_DATE/><ORIGINATOR/></header><body><segment><metadata><OBJECT_NAME>KUIPER-00071</OBJECT_NAME><OBJECT_ID>2025-151C</OBJECT_ID><CENTER_NAME>EARTH</CENTER_NAME><REF_FRAME>TEME</REF_FRAME><TIME_SYSTEM>UTC</TIME_SYSTEM><MEAN_ELEMENT_THEORY>SGP4</MEAN_ELEMENT_THEORY></metadata><data><meanElements><EPOCH>2025-08-11T12:00:02.000160</EPOCH><MEAN_MOTION>15.27528622</MEAN_MOTION><ECCENTRICITY>.0003482</ECCENTRICITY><INCLINATION>51.8809</INCLINATION><RA_OF_ASC_NODE>161.3538</RA_OF_ASC_NODE><ARG_OF_PERICENTER>225.1132</ARG_OF_PERICENTER><MEAN_ANOMALY>41.5167</MEAN_ANOMALY></meanElements><tleParameters><EPHEMERIS_TYPE>0</EPHEMERIS_TYPE><CLASSIFICATION_TYPE>U</CLASSIFICATION_TYPE><NORAD_CAT_ID>64818</NORAD_CAT_ID><ELEMENT_SET_NO>999</ELEMENT_SET_NO><REV_AT_EPOCH>401</REV_AT_EPOCH><BSTAR>-.22003E-1</BSTAR><MEAN_MOTION_DOT>-.564216E-2</MEAN_MOTION_DOT><MEAN_MOTION_DDOT>0</MEAN_MOTION_DDOT></tleParameters></data></segment></body></omm>
<omm id="CCSDS_OMM_VERS" version="2.0">
<header><CREATION_DATE/><ORIGINATOR/></header><body><segment><metadata><OBJECT_NAME>KUIPER-00072</OBJECT_NAME><OBJECT_ID>2025-151D</OBJECT_ID><CENTER_NAME>EARTH</CENTER_NAME><REF_FRAME>TEME</REF_FRAME><TIME_SYSTEM>UTC</TIME_SYSTEM><MEAN_ELEMENT_THEORY>SGP4</MEAN_ELEMENT_THEORY></metadata><data><meanElements><EPOCH>2025-08-11T05:43:26.773248</EPOCH><MEAN_MOTION>15.35689118</MEAN_MOTION><ECCENTRICITY>.0006052</ECCENTRICITY><INCLINATION>51.8832</INCLINATION><RA_OF_ASC_NODE>162.4310</RA_OF_ASC_NODE><ARG_OF_PERICENTER>247.1520</ARG_OF_PERICENTER><MEAN_ANOMALY>112.8828</MEAN_ANOMALY></meanElements><tleParameters><EPHEMERIS_TYPE>0</EPHEMERIS_TYPE><CLASSIFICATION_TYPE>U</CLASSIFICATION_TYPE><NORAD_CAT_ID>64819</NORAD_CAT_ID><ELEMENT_SET_NO>999</ELEMENT_SET_NO><REV_AT_EPOCH>398</REV_AT_EPOCH><BSTAR>.17991E-2</BSTAR><MEAN_MOTION_DOT>.63582E-3</MEAN_MOTION_DOT><MEAN_MOTION_DDOT>0</MEAN_MOTION_DDOT></tleParameters></data></segment></body></omm>
<omm id="CCSDS_OMM_VERS" version="2.0">
<header><CREATION_DATE/><ORIGINATOR/></header><body><segment><metadata><OBJECT_NAME>KUIPER-00073</OBJECT_NAME><OBJECT_ID>2025-151E</OBJECT_ID><CENTER_NAME>EARTH</CENTER_NAME><REF_FRAME>TEME</REF_FRAME><TIME_SYSTEM>UTC</TIME_SYSTEM><MEAN_ELEMENT_THEORY>SGP4</MEAN_ELEMENT_THEORY></metadata><data><meanElements><EPOCH>2025-08-11T12:00:02.000160</EPOCH><MEAN_MOTION>15.29032046</MEAN_MOTION><ECCENTRICITY>.0005821</ECCENTRICITY><INCLINATION>51.8809</INCLINATION><RA_OF_ASC_NODE>161.3860</RA_OF_ASC_NODE><ARG_OF_PERICENTER>243.1839</ARG_OF_PERICENTER><MEAN_ANOMALY>31.7004</MEAN_ANOMALY></meanElements><tleParameters><EPHEMERIS_TYPE>0</EPHEMERIS_TYPE><CLASSIFICATION_TYPE>U</CLASSIFICATION_TYPE><NORAD_CAT_ID>64820</NORAD_CAT_ID><ELEMENT_SET_NO>999</ELEMENT_SET_NO><REV_AT_EPOCH>519</REV_AT_EPOCH><BSTAR>-.94295E-2</BSTAR><MEAN_MOTION_DOT>-.260962E-2</MEAN_MOTION_DOT><MEAN_MOTION_DDOT>0</MEAN_MOTION_DDOT></tleParameters></data></segment></body></omm>
<omm id="CCSDS_OMM_VERS" version="2.0">
<header><CREATION_DATE/><ORIGINATOR/></header><body><segment><metadata><OBJECT_NAME>KUIPER-00074</OBJECT_NAME><OBJECT_ID>2025-151F</OBJECT_ID><CENTER_NAME>EARTH</CENTER_NAME><REF_FRAME>TEME</REF_FRAME><TIME_SYSTEM>UTC</TIME_SYSTEM><MEAN_ELEMENT_THEORY>SGP4</MEAN_ELEMENT_THEORY></metadata><data><meanElements><EPOCH>2025-08-11T10:20:32.911872</EPOCH><MEAN_MOTION>15.35709323</MEAN_MOTION><ECCENTRICITY>.0004692</ECCENTRICITY><INCLINATION>51.8774</INCLINATION><RA_OF_ASC_NODE>161.4695</RA_OF_ASC_NODE><ARG_OF_PERICENTER>240.1150</ARG_OF_PERICENTER><MEAN_ANOMALY>119.9371</MEAN_ANOMALY></meanElements><tleParameters><EPHEMERIS_TYPE>0</EPHEMERIS_TYPE><CLASSIFICATION_TYPE>U</CLASSIFICATION_TYPE><NORAD_CAT_ID>64821</NORAD_CAT_ID><ELEMENT_SET_NO>999</ELEMENT_SET_NO><REV_AT_EPOCH>401</REV_AT_EPOCH><BSTAR>.10018E-2</BSTAR><MEAN_MOTION_DOT>.35116E-3</MEAN_MOTION_DOT><MEAN_MOTION_DDOT>0</MEAN_MOTION_DDOT></tleParameters></data></segment></body></omm>
<omm id="CCSDS_OMM_VERS" version="2.0">
<header><CREATION_DATE/><ORIGINATOR/></header><body><segment><metadata><OBJECT_NAME>KUIPER-00075</OBJECT_NAME><OBJECT_ID>2025-151G</OBJECT_ID><CENTER_NAME>EARTH</CENTER_NAME><REF_FRAME>TEME</REF_FRAME><TIME_SYSTEM>UTC</TIME_SYSTEM><MEAN_ELEMENT_THEORY>SGP4</MEAN_ELEMENT_THEORY></metadata><data><meanElements><EPOCH>2025-08-11T10:17:50.522208</EPOCH><MEAN_MOTION>15.36566006</MEAN_MOTION><ECCENTRICITY>.0004137</ECCENTRICITY><INCLINATION>51.8791</INCLINATION><RA_OF_ASC_NODE>161.4652</RA_OF_ASC_NODE><ARG_OF_PERICENTER>235.8808</ARG_OF_PERICENTER><MEAN_ANOMALY>124.1786</MEAN_ANOMALY></meanElements><tleParameters><EPHEMERIS_TYPE>0</EPHEMERIS_TYPE><CLASSIFICATION_TYPE>U</CLASSIFICATION_TYPE><NORAD_CAT_ID>64822</NORAD_CAT_ID><ELEMENT_SET_NO>999</ELEMENT_SET_NO><REV_AT_EPOCH>401</REV_AT_EPOCH><BSTAR>.11497E-2</BSTAR><MEAN_MOTION_DOT>.41524E-3</MEAN_MOTION_DOT><MEAN_MOTION_DDOT>0</MEAN_MOTION_DDOT></tleParameters></data></segment></body></omm>
<omm id="CCSDS_OMM_VERS" version="2.0">
<header><CREATION_DATE/><ORIGINATOR/></header><body><segment><metadata><OBJECT_NAME>KUIPER-00076</OBJECT_NAME><OBJECT_ID>2025-151H</OBJECT_ID><CENTER_NAME>EARTH</CENTER_NAME><REF_FRAME>TEME</REF_FRAME><TIME_SYSTEM>UTC</TIME_SYSTEM><MEAN_ELEMENT_THEORY>SGP4</MEAN_ELEMENT_THEORY></metadata><data><meanElements><EPOCH>2025-08-11T07:15:58.832928</EPOCH><MEAN_MOTION>15.35561497</MEAN_MOTION><ECCENTRICITY>.0004637</ECCENTRICITY><INCLINATION>51.8789</INCLINATION><RA_OF_ASC_NODE>162.1096</RA_OF_ASC_NODE><ARG_OF_PERICENTER>234.3543</ARG_OF_PERICENTER><MEAN_ANOMALY>125.7011</MEAN_ANOMALY></meanElements><tleParameters><EPHEMERIS_TYPE>0</EPHEMERIS_TYPE><CLASSIFICATION_TYPE>U</CLASSIFICATION_TYPE><NORAD_CAT_ID>64823</NORAD_CAT_ID><ELEMENT_SET_NO>999</ELEMENT_SET_NO><REV_AT_EPOCH>399</REV_AT_EPOCH><BSTAR>.79699E-3</BSTAR><MEAN_MOTION_DOT>.27698E-3</MEAN_MOTION_DOT><MEAN_MOTION_DDOT>0</MEAN_MOTION_DDOT></tleParameters></data></segment></body></omm>
<omm id="CCSDS_OMM_VERS" version="2.0">
<header><CREATION_DATE/><ORIGINATOR/></header><body><segment><metadata><OBJECT_NAME>KUIPER-00077</OBJECT_NAME><OBJECT_ID>2025-151J</OBJECT_ID><CENTER_NAME>EARTH</CENTER_NAME><REF_FRAME>TEME</REF_FRAME><TIME_SYSTEM>UTC</TIME_SYSTEM><MEAN_ELEMENT_THEORY>SGP4</MEAN_ELEMENT_THEORY></metadata><data><meanElements><EPOCH>2025-08-11T05:45:44.182080</EPOCH><MEAN_MOTION>15.35547393</MEAN_MOTION><ECCENTRICITY>.0005811</ECCENTRICITY><INCLINATION>51.8795</INCLINATION><RA_OF_ASC_NODE>162.4477</RA_OF_ASC_NODE><ARG_OF_PERICENTER>247.3079</ARG_OF_PERICENTER><MEAN_ANOMALY>112.7293</MEAN_ANOMALY></meanElements><tleParameters><EPHEMERIS_TYPE>0</EPHEMERIS_TYPE><CLASSIFICATION_TYPE>U</CLASSIFICATION_TYPE><NORAD_CAT_ID>64824</NORAD_CAT_ID><ELEMENT_SET_NO>999</ELEMENT_SET_NO><REV_AT_EPOCH>397</REV_AT_EPOCH><BSTAR>.11633E-2</BSTAR><MEAN_MOTION_DOT>.40663E-3</MEAN_MOTION_DOT><MEAN_MOTION_DDOT>0</MEAN_MOTION_DDOT></tleParameters></data></segment></body></omm>
<omm id="CCSDS_OMM_VERS" version="2.0">
<header><CREATION_DATE/><ORIGINATOR/></header><body><segment><metadata><OBJECT_NAME>KUIPER-00078</OBJECT_NAME><OBJECT_ID>2025-151K</OBJECT_ID><CENTER_NAME>EARTH</CENTER_NAME><REF_FRAME>TEME</REF_FRAME><TIME_SYSTEM>UTC</TIME_SYSTEM><MEAN_ELEMENT_THEORY>SGP4</MEAN_ELEMENT_THEORY></metadata><data><meanElements><EPOCH>2025-08-11T10:26:06.255168</EPOCH><MEAN_MOTION>15.35565827</MEAN_MOTION><ECCENTRICITY>.0005412</ECCENTRICITY><INCLINATION>51.8784</INCLINATION><RA_OF_ASC_NODE>161.4982</RA_OF_ASC_NODE><ARG_OF_PERICENTER>258.4996</ARG_OF_PERICENTER><MEAN_ANOMALY>101.5383</MEAN_ANOMALY></meanElements><tleParameters><EPHEMERIS_TYPE>0</EPHEMERIS_TYPE><CLASSIFICATION_TYPE>U</CLASSIFICATION_TYPE><NORAD_CAT_ID>64825</NORAD_CAT_ID><ELEMENT_SET_NO>999</ELEMENT_SET_NO><REV_AT_EPOCH>401</REV_AT_EPOCH><BSTAR>.9838E-3</BSTAR><MEAN_MOTION_DOT>.34319E-3</MEAN_MOTION_DOT><MEAN_MOTION_DDOT>0</MEAN_MOTION_DDOT></tleParameters></data></segment></body></omm>

</ndm>
